NORAD_CAT_ID,OBJECT_NAME,OBJECT_TYPE,EPOCH,MEAN_MOTION,ECCENTRICITY,INCLINATION,RA_OF_ASC_NODE,ARG_OF_PERICENTER,MEAN_ANOMALY,BSTAR,MEAN_MOTION_DOT,MEAN_MOTION_DDOT,TLE_LINE0,TLE_LINE1,TLE_LINE2,SEMIMAJOR_AXIS,PERIOD,APOGEE,PERIGEE,DECAYED
52642.0,STARLINK-3971,PAYLOAD,2023-07-25 09:03:14,15.08837099,0.0001435,53.2146,241.1519,76.4921,283.623,7.0894e-05,8.4e-06,0.0,0 STARLINK-3971,1 52642U 22052AW  23206.37725443  .00000840  00000-0  70894-4 0  9992,2 52642  53.2146 241.1519 0001435  76.4921 283.6230 15.08837099 66452,6917.889,95.438,540.747,538.762,0.0
52642.0,STARLINK-3971,PAYLOAD,2023-07-26 12:04:47,15.08843289,0.0001398,53.2154,236.0955,81.9377,278.1774,0.00017313,2.469e-05,0.0,0 STARLINK-3971,1 52642U 22052AW  23207.50332908  .00002469  00000-0  17313-3 0  9993,2 52642  53.2154 236.0955 0001398  81.9377 278.1774 15.08843289 66621,6917.87,95.437,540.702,538.768,0.0
52642.0,STARLINK-3971,PAYLOAD,2023-07-27 13:30:57,15.08843415,0.0001371,53.2149,231.3371,85.606,274.5089,8.4101e-05,1.051e-05,0.0,0 STARLINK-3971,1 52642U 22052AW  23208.56316901  .00001051  00000-0  84101-4 0  9991,2 52642  53.2149 231.3371 0001371  85.6060 274.5089 15.08843415 66783,6917.87,95.437,540.683,538.787,0.0
52642.0,STARLINK-3971,PAYLOAD,2023-07-28 10:10:59,15.08835499,0.0001299,53.2158,227.4713,86.2975,273.8166,-1.4101e-07,-2.9e-06,0.0,0 STARLINK-3971,1 52642U 22052AW  23209.42429868 -.00000290  00000-0 -14101-6 0  9995,2 52642  53.2158 227.4713 0001299  86.2975 273.8166 15.08835499 67298,6917.894,95.438,540.658,538.861,0.0
52642.0,STARLINK-3971,PAYLOAD,2023-07-28 11:46:22,15.08835916,0.0001314,53.216,227.174,87.1499,272.9644,3.5723e-06,-2.31e-06,0.0,0 STARLINK-3971,1 52642U 22052AW  23209.49053852 -.00000231  00000-0  35723-5 0  9994,2 52642  53.2160 227.1740 0001314  87.1499 272.9644 15.08835916 66921,6917.893,95.438,540.667,538.849,0.0
52642.0,STARLINK-3971,PAYLOAD,2023-07-29 17:58:43,15.08823879,0.0001432,53.2177,221.5216,83.1539,276.9616,-1.4692e-05,-5.22e-06,0.0,0 STARLINK-3971,1 52642U 22052AW  23210.74910940 -.00000522  00000-0 -14692-4 0  9999,2 52642  53.2177 221.5216 0001432  83.1539 276.9616 15.08823879 67498,6917.93,95.439,540.785,538.804,0.0
52642.0,STARLINK-3971,PAYLOAD,2023-07-30 08:17:12,15.08816013,0.0001372,53.2157,218.8479,85.5633,274.5515,-3.6353e-05,-8.66e-06,0.0,0 STARLINK-3971,1 52642U 22052AW  23211.34528486 -.00000866  00000-0 -36353-4 0  9995,2 52642  53.2157 218.8479 0001372  85.5633 274.5515 15.08816013 67584,6917.954,95.439,540.768,538.87,0.0
52642.0,STARLINK-3971,PAYLOAD,2023-07-30 17:49:30,15.08838296,0.0001097,53.2156,217.0636,83.0176,277.0941,0.00014642,2.043e-05,0.0,0 STARLINK-3971,1 52642U 22052AW  23211.74271003  .00002043  00000-0  14642-3 0  9992,2 52642  53.2156 217.0636 0001097  83.0176 277.0941 15.08838296 67643,6917.886,95.438,540.509,538.992,0.0
52642.0,STARLINK-3971,PAYLOAD,2023-08-01 00:01:50,15.0884545,0.0001489,53.2148,211.4129,80.4112,279.7048,0.00042573,6.495e-05,0.0,0 STARLINK-3971,1 52642U 22052AW  23213.00127414  .00006495  00000-0  42573-3 0  9998,2 52642  53.2148 211.4129 0001489  80.4112 279.7048 15.08845450 67833,6917.864,95.437,540.759,538.699,0.0
52642.0,STARLINK-3971,PAYLOAD,2023-08-02 06:14:08,15.0885686,0.0001437,53.2149,205.7626,81.0615,279.054,0.00016528,2.345e-05,0.0,0 STARLINK-3971,1 52642U 22052AW  23214.25982058  .00002345  00000-0  16528-3 0  9990,2 52642  53.2149 205.7626 0001437  81.0615 279.0540 15.08856860 68029,6917.829,95.436,540.688,538.7,0.0
52642.0,STARLINK-3971,PAYLOAD,2023-08-03 02:54:09,15.08847781,0.0001472,53.2157,201.8978,83.9687,276.1473,-3.364e-05,-8.23e-06,0.0,0 STARLINK-3971,1 52642U 22052AW  23215.12093887 -.00000823  00000-0 -33640-4 0  9996,2 52642  53.2157 201.8978 0001472  83.9687 276.1473 15.08847781 68153,6917.857,95.437,540.74,538.703,0.0
52642.0,STARLINK-3971,PAYLOAD,2023-08-04 02:44:56,15.0883847,0.0001517,53.2157,197.4369,88.7924,271.3242,-7.7004e-05,-1.513e-05,0.0,0 STARLINK-3971,1 52642U 22052AW  23216.11454104 -.00001513  00000-0 -77004-4 0  9998,2 52642  53.2157 197.4369 0001517  88.7924 271.3242 15.08838470 68307,6917.885,95.438,540.8,538.701,0.0
52642.0,STARLINK-3971,PAYLOAD,2023-08-05 07:21:52,15.08844388,0.0001502,53.217,192.0851,88.4118,271.7046,0.00011007,1.464e-05,0.0,0 STARLINK-3971,1 52642U 22052AW  23217.30686011  .00001464  00000-0  11007-3 0  9997,2 52642  53.2170 192.0851 0001502  88.4118 271.7046 15.08844388 68485,6917.867,95.437,540.771,538.693,0.0
52642.0,STARLINK-3971,PAYLOAD,2023-08-06 08:48:02,15.08845577,0.0001483,53.2164,187.3258,85.2783,274.8379,0.00015503,2.181e-05,0.0,0 STARLINK-3971,1 52642U 22052AW  23218.36669889  .00002181  00000-0  15503-3 0  9990,2 52642  53.2164 187.3258 0001483  85.2783 274.8379 15.08845577 68649,6917.863,95.437,540.754,538.702,0.0
52642.0,STARLINK-3971,PAYLOAD,2023-08-06 15:09:35,15.08834323,0.000163,53.2173,186.1344,82.1477,277.97,-5.6658e-06,-3.78e-06,0.0,0 STARLINK-3971,1 52642U 22052AW  23218.63166634 -.00000378  00000-0 -56658-5 0  9996,2 52642  53.2173 186.1344 0001630  82.1477 277.9700 15.08834323 68685,6917.898,95.438,540.89,538.635,0.0
52642.0,STARLINK-3971,PAYLOAD,2023-08-08 06:54:13,15.08857713,0.0001405,53.2155,178.7035,80.972,279.1431,0.00038426,5.836e-05,0.0,0 STARLINK-3971,1 52642U 22052AW  23220.28766192  .00005836  00000-0  38426-3 0  9998,2 52642  53.2155 178.7035 0001405  80.9720 279.1431 15.08857713 68937,6917.826,95.436,540.663,538.719,0.0
52642.0,STARLINK-3971,PAYLOAD,2023-08-09 03:34:16,15.08843524,0.0001321,53.2153,174.8379,91.1454,268.9689,0.00063671,9.861e-05,0.0,0 STARLINK-3971,1 52642U 22052AW  23221.14880710  .00009861  00000-0  63671-3 0  9999,2 52642  53.2153 174.8379 0001321  91.1454 268.9689 15.08843524 69069,6917.87,95.437,540.648,538.821,0.0
52642.0,STARLINK-3971,PAYLOAD,2023-08-10 06:35:48,15.08890683,0.0001323,53.2156,169.7822,96.3946,263.7197,0.0011626,0.00018289,0.0,0 STARLINK-3971,1 52642U 22052AW  23222.27486768  .00018289  00000-0  11626-2 0  9995,2 52642  53.2156 169.7822 0001323  96.3946 263.7197 15.08890683 69237,6917.725,95.434,540.506,538.675,0.0
52642.0,STARLINK-3971,PAYLOAD,2023-08-11 03:15:49,15.0884739,8.96e-05,53.2098,165.9145,93.5186,266.5908,0.00052991,8.157e-05,0.0,0 STARLINK-3971,1 52642U 22052AW  23223.13598621  .00008157  00000-0  52991-3 0  9997,2 52642  53.2098 165.9145 0000896  93.5186 266.5908 15.08847390 69369,6917.858,95.437,540.343,539.103,0.0
52642.0,STARLINK-3971,PAYLOAD,2023-08-12 03:06:35,15.08851624,0.0001256,53.2174,161.4602,110.6007,249.512,-0.00053574,-8.807e-05,0.0,0 STARLINK-3971,1 52642U 22052AW  23224.12958259 -.00008807  00000-0 -53574-3 0  9996,2 52642  53.2174 161.4602 0001256 110.6007 249.5120 15.08851624 69516,6917.845,95.437,540.579,538.841,0.0
52642.0,STARLINK-3971,PAYLOAD,2023-08-12 19:00:27,15.08841713,0.0001068,53.2158,158.4848,103.5222,256.5889,0.00015568,2.191e-05,0.0,0 STARLINK-3971,1 52642U 22052AW  23224.79198947  .00002191  00000-0  15568-3 0  9998,2 52642  53.2158 158.4848 0001068 103.5222 256.5889 15.08841713 69616,6917.875,95.437,540.479,539.001,0.0
52642.0,STARLINK-3971,PAYLOAD,2023-08-14 01:12:47,15.08839911,0.0001192,53.2172,152.8335,88.9481,271.1648,9.4285e-05,1.213e-05,0.0,0 STARLINK-3971,1 52642U 22052AW  23226.05055210  .00001213  00000-0  94285-4 0  9992,2 52642  53.2172 152.8335 0001192  88.9481 271.1648 15.08839911 69806,6917.881,95.438,540.57,538.921,0.0
52642.0,STARLINK-3971,PAYLOAD,2023-08-15 18:32:49,15.08842076,0.0001242,53.2169,145.1023,97.7758,262.3375,0.00014887,2.082e-05,0.0,0 STARLINK-3971,1 52642U 22052AW  23227.77279294  .00002082  00000-0  14887-3 0  9996,2 52642  53.2169 145.1023 0001242  97.7758 262.3375 15.08842076 70067,6917.874,95.437,540.598,538.88,0.0
52642.0,STARLINK-3971,PAYLOAD,2023-08-17 00:45:08,15.0884354,0.00011,53.2169,139.4542,95.2392,264.8726,8.055e-05,9.94e-06,0.0,0 STARLINK-3971,1 52642U 22052AW  23229.03135105  .00000994  00000-0  80550-4 0  9990,2 52642  53.2169 139.4542 0001100  95.2392 264.8726 15.08843540 70254,6917.87,95.437,540.496,538.974,0.0
52642.0,STARLINK-3971,PAYLOAD,2023-08-18 03:46:41,15.08846809,0.0001234,53.2181,134.3986,93.5861,266.5272,5.9049e-05,6.52e-06,0.0,0 STARLINK-3971,1 52642U 22052AW  23230.15742784  .00000652  00000-0  59049-4 0  9992,2 52642  53.2181 134.3986 0001234  93.5861 266.5272 15.08846809 70429,6917.86,95.437,540.578,538.871,0.0
52642.0,STARLINK-3971,PAYLOAD,2023-08-19 02:02:06,15.08842636,0.0001315,53.2182,130.2357,95.1223,264.992,-4.7048e-06,-3.63e-06,0.0,0 STARLINK-3971,1 52642U 22052AW  23231.08479410 -.00000363  00000-0 -47048-5 0  9996,2 52642  53.2182 130.2357 0001315  95.1223 264.9920 15.08842636 70568,6917.872,95.437,540.647,538.828,0.0
52642.0,STARLINK-3971,PAYLOAD,2023-08-20 03:28:17,15.08834804,0.0001236,53.2179,125.4771,84.2413,275.872,4.1024e-05,3.65e-06,0.0,0 STARLINK-3971,1 52642U 22052AW  23232.14464319  .00000365  00000-0  41024-4 0  9993,2 52642  53.2179 125.4771 0001236  84.2413 275.8720 15.08834804 70727,6917.896,95.438,540.616,538.906,0.0
52642.0,STARLINK-3971,PAYLOAD,2023-08-21 01:43:42,15.08808407,0.0001508,53.2177,121.3126,93.9197,266.1968,0.00042979,6.553e-05,0.0,0 STARLINK-3971,1 52642U 22052AW  23233.07201440  .00006553  00000-0  42979-3 0  9994,2 52642  53.2177 121.3126 0001508  93.9197 266.1968 15.08808407 70864,6917.977,95.44,540.885,538.799,0.0
52642.0,STARLINK-3971,PAYLOAD,2023-08-21 23:59:04,15.08848102,0.0001373,53.2179,117.1493,87.5835,272.5315,0.00025389,3.756e-05,0.0,0 STARLINK-3971,1 52642U 22052AW  23233.99935580  .00003756  00000-0  25389-3 0  9992,2 52642  53.2179 117.1493 0001373  87.5835 272.5315 15.08848102 71004,6917.856,95.437,540.67,538.771,0.0
52642.0,STARLINK-3971,PAYLOAD,2023-08-23 01:25:15,15.08845836,0.0001497,53.2178,112.3917,79.3528,280.7633,0.00011111,1.481e-05,0.0,0 STARLINK-3971,1 52642U 22052AW  23235.05920156  .00001481  00000-0  11111-3 0  9995,2 52642  53.2178 112.3917 0001497  79.3528 280.7633 15.08845836 71168,6917.863,95.437,540.763,538.692,0.0
